IRIDIUM 33 DEB          
1 40998U 97051ABL 17345.39118439  .00000325  00000-0  10305-3 0  9992
2 40998  86.3884 208.9340 0007875 335.0602 148.2950 14.37063125650676
